[{"OBJECT_NAME":"STARLINK-36339","OBJECT_ID":"2026-003G","EPOCH":"2026-03-09T11:47:49.189920","MEAN_MOTION":15.27598668,"ECCENTRICITY":6.474e-5,"INCLINATION":42.9999,"RA_OF_ASC_NODE":228.1797,"ARG_OF_PERICENTER":275.2817,"MEAN_ANOMALY":84.7961,"EPHEMERIS_TYPE":0,"CLASSIFICATION_TYPE":"U","NORAD_CAT_ID":67340,"ELEMENT_SET_NO":999,"REV_AT_EPOCH":879,"BSTAR":0.0014122757,"MEAN_MOTION_DOT":0.00038827,"MEAN_MOTION_DDOT":0},{"OBJECT_NAME":"OBJECT L","OBJECT_ID":"2024-024L","EPOCH":"2026-03-09T22:36:05.522976","MEAN_MOTION":15.29373491,"ECCENTRICITY":0.00073185,"INCLINATION":97.3169,"RA_OF_ASC_NODE":137.7038,"ARG_OF_PERICENTER":167.6369,"MEAN_ANOMALY":192.5052,"EPHEMERIS_TYPE":0,"CLASSIFICATION_TYPE":"U","NORAD_CAT_ID":58927,"ELEMENT_SET_NO":999,"REV_AT_EPOCH":9318,"BSTAR":0.00043092344,"MEAN_MOTION_DOT":0.00012217,"MEAN_MOTION_DDOT":0}]
